STARLINK-30105          
1 57433U 23105D   26068.28525767  .00000208  00000+0  17084-4 0  9990
2 57433  43.0064  33.1157 0001077 264.5620  95.5109 15.27578600148262
FLOCK 4G-27             
1 62641U 25009AJ  26068.75406453  .00012587  00000+0  47455-3 0  9991
2 62641  97.3976 150.8631 0000756 322.4974  37.6212 15.27199247 63710
